[{"OBJECT_NAME":"STARLINK-3625","OBJECT_ID":"2022-017K","EPOCH":"2026-03-09T22:15:14.133024","MEAN_MOTION":15.08835385,"ECCENTRICITY":0.00015593,"INCLINATION":53.2184,"RA_OF_ASC_NODE":338.0274,"ARG_OF_PERICENTER":92.8695,"MEAN_ANOMALY":267.2475,"EPHEMERIS_TYPE":0,"CLASSIFICATION_TYPE":"U","NORAD_CAT_ID":51777,"ELEMENT_SET_NO":999,"REV_AT_EPOCH":22263,"BSTAR":-6.624142e-6,"MEAN_MOTION_DOT":-3.93e-6,"MEAN_MOTION_DDOT":0},{"OBJECT_NAME":"KUIPER-00153","OBJECT_ID":"2025-217M","EPOCH":"2026-03-09T22:00:01.999584","MEAN_MOTION":15.08685712,"ECCENTRICITY":0.00100607,"INCLINATION":51.8801,"RA_OF_ASC_NODE":26.4916,"ARG_OF_PERICENTER":321.9781,"MEAN_ANOMALY":312.405,"EPHEMERIS_TYPE":0,"CLASSIFICATION_TYPE":"U","NORAD_CAT_ID":65773,"ELEMENT_SET_NO":999,"REV_AT_EPOCH":517,"BSTAR":-0.00046487713,"MEAN_MOTION_DOT":-7.667e-5,"MEAN_MOTION_DDOT":0}]
